{
  "type": "FeatureCollection",
  "features": [
    {
      "type": "Feature",
      "properties": {
        "norad_id": 35668,
        "name": "COSMOS 2251 DEB",
        "group": "cosmos-2251-debris",
        "lat": -4.412195492824274,
        "lon": 46.58432921181304,
        "alt_km": 732.3977599385908,
        "timestamp": "2025-12-10T05:46:14.223132+00:00",
        "meta_object_name": "COSMOS 2251 DEB",
        "meta_object_id": "1993-036APK",
        "meta_epoch": "2025-12-08T23:24:19.681920",
        "meta_mean_motion": 14.63969624,
        "meta_eccentricity": 0.0083209,
        "meta_inclination": 74.045,
        "meta_ra_of_asc_node": 227.747,
        "meta_arg_of_pericenter": 333.7129,
        "meta_mean_anomaly": 25.9825,
        "meta_ephemeris_type": 0,
        "meta_classification_type": "U",
        "meta_norad_cat_id": 35668,
        "meta_element_set_no": 999,
        "meta_rev_at_epoch": 87592,
        "meta_bstar": 0.00035808,
        "meta_mean_motion_dot": 1.939e-05,
        "meta_mean_motion_ddot": 0,
        "tle_line1": "1 35668U 93036APK 25342.97522780  .00001939  00000+0  35808-3 0  9993",
        "tle_line2": "2 35668  74.0450 227.7470 0083209 333.7129  25.9825 14.63969624875921"
      },
      "geometry": {
        "type": "Point",
        "coordinates": [
          46.58432921181304,
          -4.412195492824274
        ]
      }
    },
    {
      "type": "Feature",
      "properties": {
        "norad_id": 35669,
        "name": "COSMOS 2251 DEB",
        "group": "cosmos-2251-debris",
        "lat": 44.80396546724934,
        "lon": -179.85392784767674,
        "alt_km": 1225.305042482215,
        "timestamp": "2025-12-10T05:46:14.223142+00:00",
        "meta_object_name": "COSMOS 2251 DEB",
        "meta_object_id": "1993-036APL",
        "meta_epoch": "2025-12-03T21:23:42.149184",
        "meta_mean_motion": 13.57134195,
        "meta_eccentricity": 0.0387239,
        "meta_inclination": 73.852,
        "meta_ra_of_asc_node": 173.7821,
        "meta_arg_of_pericenter": 287.3475,
        "meta_mean_anomaly": 68.5633,
        "meta_ephemeris_type": 0,
        "meta_classification_type": "U",
        "meta_norad_cat_id": 35669,
        "meta_element_set_no": 999,
        "meta_rev_at_epoch": 60669,
        "meta_bstar": 0.0017031,
        "meta_mean_motion_dot": 1.95e-05,
        "meta_mean_motion_ddot": 0,
        "tle_line1": "1 35669U 93036APL 25337.89146006  .00001950  00000+0  17031-2 0  9992",
        "tle_line2": "2 35669  73.8520 173.7821 0387239 287.3475  68.5633 13.57134195606690"
      },
      "geometry": {
        "type": "Point",
        "coordinates": [
          -179.85392784767674,
          44.80396546724934
        ]
      }
    },
    {
      "type": "Feature",
      "properties": {
        "norad_id": 35670,
        "name": "COSMOS 2251 DEB",
        "group": "cosmos-2251-debris",
        "lat": -22.916974359313215,
        "lon": -103.41931025448076,
        "alt_km": 617.0131342059303,
        "timestamp": "2025-12-10T05:46:14.223152+00:00",
        "meta_object_name": "COSMOS 2251 DEB",
        "meta_object_id": "1993-036APM",
        "meta_epoch": "2025-12-08T12:40:44.894496",
        "meta_mean_motion": 14.93746131,
        "meta_eccentricity": 0.00374415,
        "meta_inclination": 73.8955,
        "meta_ra_of_asc_node": 73.039,
        "meta_arg_of_pericenter": 35.0218,
        "meta_mean_anomaly": 325.3416,
        "meta_ephemeris_type": 0,
        "meta_classification_type": "U",
        "meta_norad_cat_id": 35670,
        "meta_element_set_no": 999,
        "meta_rev_at_epoch": 87664,
        "meta_bstar": 0.0018203888,
        "meta_mean_motion_dot": 0.00019569,
        "meta_mean_motion_ddot": 0,
        "tle_line1": "1 35670U 93036APM 25342.52829739  .00019569  00000+0  18204-2 0  9999",
        "tle_line2": "2 35670  73.8955  73.0390 0037441  35.0218 325.3416 14.93746131876644"
      },
      "geometry": {
        "type": "Point",
        "coordinates": [
          -103.41931025448076,
          -22.916974359313215
        ]
      }
    },
    {
      "type": "Feature",
      "properties": {
        "norad_id": 35671,
        "name": "COSMOS 2251 DEB",
        "group": "cosmos-2251-debris",
        "lat": -26.668127561889023,
        "lon": 75.72508216555293,
        "alt_km": 728.1124156751366,
        "timestamp": "2025-12-10T05:46:14.223163+00:00",
        "meta_object_name": "COSMOS 2251 DEB",
        "meta_object_id": "1993-036APN",
        "meta_epoch": "2025-12-09T13:24:21.306816",
        "meta_mean_motion": 14.48340433,
        "meta_eccentricity": 0.004149,
        "meta_inclination": 74.0178,
        "meta_ra_of_asc_node": 85.2791,
        "meta_arg_of_pericenter": 259.861,
        "meta_mean_anomaly": 118.1508,
        "meta_ephemeris_type": 0,
        "meta_classification_type": "U",
        "meta_norad_cat_id": 35671,
        "meta_element_set_no": 999,
        "meta_rev_at_epoch": 86717,
        "meta_bstar": 0.00041701,
        "meta_mean_motion_dot": 1.548e-05,
        "meta_mean_motion_ddot": 0,
        "tle_line1": "1 35671U 93036APN 25343.55857994  .00001548  00000+0  41701-3 0  9995",
        "tle_line2": "2 35671  74.0178  85.2791 0041490 259.8610 118.1508 14.48340433867179"
      },
      "geometry": {
        "type": "Point",
        "coordinates": [
          75.72508216555293,
          -26.668127561889023
        ]
      }
    },
    {
      "type": "Feature",
      "properties": {
        "norad_id": 35674,
        "name": "COSMOS 2251 DEB",
        "group": "cosmos-2251-debris",
        "lat": 23.11489581589836,
        "lon": 134.22334763607876,
        "alt_km": 769.720995134051,
        "timestamp": "2025-12-10T05:46:14.223173+00:00",
        "meta_object_name": "COSMOS 2251 DEB",
        "meta_object_id": "1993-036APR",
        "meta_epoch": "2025-12-08T16:44:04.242048",
        "meta_mean_motion": 14.54099843,
        "meta_eccentricity": 0.00960707,
        "meta_inclination": 74.0606,
        "meta_ra_of_asc_node": 324.1421,
        "meta_arg_of_pericenter": 9.8802,
        "meta_mean_anomaly": 350.4219,
        "meta_ephemeris_type": 0,
        "meta_classification_type": "U",
        "meta_norad_cat_id": 35674,
        "meta_element_set_no": 999,
        "meta_rev_at_epoch": 86052,
        "meta_bstar": 0.0029300128,
        "meta_mean_motion_dot": 0.00013157,
        "meta_mean_motion_ddot": 0,
        "tle_line1": "1 35674U 93036APR 25342.69727132  .00013157  00000+0  29300-2 0  9991",
        "tle_line2": "2 35674  74.0606 324.1421 0096070   9.8802 350.4219 14.54099843860528"
      },
      "geometry": {
        "type": "Point",
        "coordinates": [
          134.22334763607876,
          23.11489581589836
        ]
      }
    },
    {
      "type": "Feature",
      "properties": {
        "norad_id": 35701,
        "name": "COSMOS 2251 DEB",
        "group": "cosmos-2251-debris",
        "lat": 32.890217006901516,
        "lon": -42.724205712092896,
        "alt_km": 1066.6467856760164,
        "timestamp": "2025-12-10T05:46:14.223182+00:00",
        "meta_object_name": "COSMOS 2251 DEB",
        "meta_object_id": "1993-036APW",
        "meta_epoch": "2025-12-06T05:57:57.623904",
        "meta_mean_motion": 13.80843435,
        "meta_eccentricity": 0.02897209,
        "meta_inclination": 74.0028,
        "meta_ra_of_asc_node": 313.2955,
        "meta_arg_of_pericenter": 164.0681,
        "meta_mean_anomaly": 196.98,
        "meta_ephemeris_type": 0,
        "meta_classification_type": "U",
        "meta_norad_cat_id": 35701,
        "meta_element_set_no": 999,
        "meta_rev_at_epoch": 62069,
        "meta_bstar": 0.0021223911,
        "meta_mean_motion_dot": 3.05e-05,
        "meta_mean_motion_ddot": 0,
        "tle_line1": "1 35701U 93036APW 25340.24858361  .00003050  00000+0  21224-2 0  9998",
        "tle_line2": "2 35701  74.0028 313.2955 0289720 164.0681 196.9800 13.80843435620696"
      },
      "geometry": {
        "type": "Point",
        "coordinates": [
          -42.724205712092896,
          32.890217006901516
        ]
      }
    },
    {
      "type": "Feature",
      "properties": {
        "norad_id": 35703,
        "name": "COSMOS 2251 DEB",
        "group": "cosmos-2251-debris",
        "lat": 27.08143267472459,
        "lon": -140.6447136869077,
        "alt_km": 557.6010051606945,
        "timestamp": "2025-12-10T05:46:14.223192+00:00",
        "meta_object_name": "COSMOS 2251 DEB",
        "meta_object_id": "1993-036APY",
        "meta_epoch": "2025-12-08T11:12:28.770624",
        "meta_mean_motion": 14.90258753,
        "meta_eccentricity": 0.00649106,
        "meta_inclination": 74.042,
        "meta_ra_of_asc_node": 51.3159,
        "meta_arg_of_pericenter": 122.6243,
        "meta_mean_anomaly": 238.1226,
        "meta_ephemeris_type": 0,
        "meta_classification_type": "U",
        "meta_norad_cat_id": 35703,
        "meta_element_set_no": 999,
        "meta_rev_at_epoch": 66552,
        "meta_bstar": 0.00096315421,
        "meta_mean_motion_dot": 9.705e-05,
        "meta_mean_motion_ddot": 0,
        "tle_line1": "1 35703U 93036APY 25342.46699966  .00009705  00000+0  96315-3 0  9997",
        "tle_line2": "2 35703  74.0420  51.3159 0064910 122.6243 238.1226 14.90258753665523"
      },
      "geometry": {
        "type": "Point",
        "coordinates": [
          -140.6447136869077,
          27.08143267472459
        ]
      }
    }
  ]
}